1 23118U 93073E   17348.26684389 -.00000304  00000-0  00000+0 0  9993
2 23118  15.0402  13.6954 0062754  23.2201  98.4586  0.99993948 85734
